{
  "type": "FeatureCollection",
  "features": [
    {
      "type": "Feature",
      "properties": {
        "norad_id": 39773,
        "name": "EUTELSAT 3B",
        "group": "eutelsat",
        "lat": 0.026142573079233955,
        "lon": 155.49923653020335,
        "alt_km": 35783.3238480684,
        "timestamp": "2025-12-26T03:50:11.759136+00:00",
        "meta_object_name": "EUTELSAT 3B",
        "meta_object_id": "2014-030A",
        "meta_epoch": "2025-12-25T18:13:05.071872",
        "meta_mean_motion": 1.00270238,
        "meta_eccentricity": 0.0004271,
        "meta_inclination": 0.0605,
        "meta_ra_of_asc_node": 350.9778,
        "meta_arg_of_pericenter": 244.1781,
        "meta_mean_anomaly": 135.7279,
        "meta_ephemeris_type": 0,
        "meta_classification_type": "U",
        "meta_norad_cat_id": 39773,
        "meta_element_set_no": 999,
        "meta_rev_at_epoch": 4232,
        "meta_bstar": 0,
        "meta_mean_motion_dot": 4.1e-07,
        "meta_mean_motion_ddot": 0,
        "tle_line1": "1 39773U 14030A   25359.75908648  .00000041  00000+0  00000+0 0  9991",
        "tle_line2": "2 39773   0.0605 350.9778 0004271 244.1781 135.7279  1.00270238 42320"
      },
      "geometry": {
        "type": "Point",
        "coordinates": [
          155.49923653020335,
          0.026142573079233955
        ]
      }
    },
    {
      "type": "Feature",
      "properties": {
        "norad_id": 40425,
        "name": "EUTELSAT 115 WEST B",
        "group": "eutelsat",
        "lat": -0.01475378197102955,
        "lon": 37.540945751513625,
        "alt_km": 35785.63289929472,
        "timestamp": "2025-12-26T03:50:11.759147+00:00",
        "meta_object_name": "EUTELSAT 115 WEST B",
        "meta_object_id": "2015-010B",
        "meta_epoch": "2025-12-24T09:59:58.343136",
        "meta_mean_motion": 1.00271259,
        "meta_eccentricity": 1.435e-05,
        "meta_inclination": 0.0435,
        "meta_ra_of_asc_node": 188.915,
        "meta_arg_of_pericenter": 182.2118,
        "meta_mean_anomaly": 117.1483,
        "meta_ephemeris_type": 0,
        "meta_classification_type": "U",
        "meta_norad_cat_id": 40425,
        "meta_element_set_no": 999,
        "meta_rev_at_epoch": 3964,
        "meta_bstar": 0,
        "meta_mean_motion_dot": -4e-08,
        "meta_mean_motion_ddot": 0,
        "tle_line1": "1 40425U 15010B   25358.41664749 -.00000004  00000+0  00000+0 0  9999",
        "tle_line2": "2 40425   0.0435 188.9150 0000143 182.2118 117.1483  1.00271259 39646"
      },
      "geometry": {
        "type": "Point",
        "coordinates": [
          37.540945751513625,
          -0.01475378197102955
        ]
      }
    },
    {
      "type": "Feature",
      "properties": {
        "norad_id": 40875,
        "name": "EUTELSAT 8 WEST B",
        "group": "eutelsat",
        "lat": 0.059848204587490864,
        "lon": 144.41129468417788,
        "alt_km": 35797.76828225364,
        "timestamp": "2025-12-26T03:50:11.759159+00:00",
        "meta_object_name": "EUTELSAT 8 WEST B",
        "meta_object_id": "2015-039B",
        "meta_epoch": "2025-12-25T06:10:40.433088",
        "meta_mean_motion": 1.00271322,
        "meta_eccentricity": 0.000422,
        "meta_inclination": 0.0645,
        "meta_ra_of_asc_node": 9.1951,
        "meta_arg_of_pericenter": 265.5835,
        "meta_mean_anomaly": 263.9078,
        "meta_ephemeris_type": 0,
        "meta_classification_type": "U",
        "meta_norad_cat_id": 40875,
        "meta_element_set_no": 999,
        "meta_rev_at_epoch": 3791,
        "meta_bstar": 0,
        "meta_mean_motion_dot": -4.4e-07,
        "meta_mean_motion_ddot": 0,
        "tle_line1": "1 40875U 15039B   25359.25741242 -.00000044  00000+0  00000+0 0  9990",
        "tle_line2": "2 40875   0.0645   9.1951 0004220 265.5835 263.9078  1.00271322 37911"
      },
      "geometry": {
        "type": "Point",
        "coordinates": [
          144.41129468417788,
          0.059848204587490864
        ]
      }
    },
    {
      "type": "Feature",
      "properties": {
        "norad_id": 41310,
        "name": "EUTELSAT 9B",
        "group": "eutelsat",
        "lat": 0.03435551006150116,
        "lon": 161.39704194615402,
        "alt_km": 35794.52047510021,
        "timestamp": "2025-12-26T03:50:11.759172+00:00",
        "meta_object_name": "EUTELSAT 9B",
        "meta_object_id": "2016-005A",
        "meta_epoch": "2025-12-25T16:31:52.263840",
        "meta_mean_motion": 1.00269837,
        "meta_eccentricity": 0.0004671,
        "meta_inclination": 0.0258,
        "meta_ra_of_asc_node": 45.4208,
        "meta_arg_of_pericenter": 229.6362,
        "meta_mean_anomaly": 76.3538,
        "meta_ephemeris_type": 0,
        "meta_classification_type": "U",
        "meta_norad_cat_id": 41310,
        "meta_element_set_no": 999,
        "meta_rev_at_epoch": 3637,
        "meta_bstar": 0,
        "meta_mean_motion_dot": 8.3e-07,
        "meta_mean_motion_ddot": 0,
        "tle_line1": "1 41310U 16005A   25359.68879935  .00000083  00000+0  00000+0 0  9999",
        "tle_line2": "2 41310   0.0258  45.4208 0004671 229.6362  76.3538  1.00269837 36374"
      },
      "geometry": {
        "type": "Point",
        "coordinates": [
          161.39704194615402,
          0.03435551006150116
        ]
      }
    },
    {
      "type": "Feature",
      "properties": {
        "norad_id": 41382,
        "name": "EUTELSAT 65 WEST A",
        "group": "eutelsat",
        "lat": 0.06463589904449019,
        "lon": 87.27609341452013,
        "alt_km": 35795.676192217565,
        "timestamp": "2025-12-26T03:50:11.759184+00:00",
        "meta_object_name": "EUTELSAT 65 WEST A",
        "meta_object_id": "2016-014A",
        "meta_epoch": "2025-12-25T00:39:29.297088",
        "meta_mean_motion": 1.00271925,
        "meta_eccentricity": 0.00022825,
        "meta_inclination": 0.0484,
        "meta_ra_of_asc_node": 343.8685,
        "meta_arg_of_pericenter": 293.2062,
        "meta_mean_anomaly": 121.4109,
        "meta_ephemeris_type": 0,
        "meta_classification_type": "U",
        "meta_norad_cat_id": 41382,
        "meta_element_set_no": 999,
        "meta_rev_at_epoch": 3578,
        "meta_bstar": 0,
        "meta_mean_motion_dot": -2.55e-06,
        "meta_mean_motion_ddot": 0,
        "tle_line1": "1 41382U 16014A   25359.02742242 -.00000255  00000+0  00000+0 0  9998",
        "tle_line2": "2 41382   0.0484 343.8685 0002282 293.2062 121.4109  1.00271925 35789"
      },
      "geometry": {
        "type": "Point",
        "coordinates": [
          87.27609341452013,
          0.06463589904449019
        ]
      }
    },
    {
      "type": "Feature",
      "properties": {
        "norad_id": 41589,
        "name": "EUTELSAT 117 WEST B",
        "group": "eutelsat",
        "lat": -0.002359757771209511,
        "lon": 35.484458345495305,
        "alt_km": 35784.86192073845,
        "timestamp": "2025-12-26T03:50:11.759195+00:00",
        "meta_object_name": "EUTELSAT 117 WEST B",
        "meta_object_id": "2016-038B",
        "meta_epoch": "2025-12-24T09:59:01.014144",
        "meta_mean_motion": 1.00277873,
        "meta_eccentricity": 6.384e-05,
        "meta_inclination": 0.0094,
        "meta_ra_of_asc_node": 154.0765,
        "meta_arg_of_pericenter": 139.5473,
        "meta_mean_anomaly": 192.3072,
        "meta_ephemeris_type": 0,
        "meta_classification_type": "U",
        "meta_norad_cat_id": 41589,
        "meta_element_set_no": 999,
        "meta_rev_at_epoch": 3491,
        "meta_bstar": 0,
        "meta_mean_motion_dot": 9e-08,
        "meta_mean_motion_ddot": 0,
        "tle_line1": "1 41589U 16038B   25358.41598396  .00000009  00000+0  00000+0 0  9990",
        "tle_line2": "2 41589   0.0094 154.0765 0000638 139.5473 192.3072  1.00277873 34915"
      },
      "geometry": {
        "type": "Point",
        "coordinates": [
          35.484458345495305,
          -0.002359757771209511
        ]
      }
    },
    {
      "type": "Feature",
      "properties": {
        "norad_id": 42741,
        "name": "EUTELSAT 172B",
        "group": "eutelsat",
        "lat": -0.02058627499656949,
        "lon": -35.55367527014264,
        "alt_km": 35786.85081177432,
        "timestamp": "2025-12-26T03:50:11.759207+00:00",
        "meta_object_name": "EUTELSAT 172B",
        "meta_object_id": "2017-029B",
        "meta_epoch": "2025-12-25T07:02:05.510112",
        "meta_mean_motion": 1.00270279,
        "meta_eccentricity": 9.5e-06,
        "meta_inclination": 0.033,
        "meta_ra_of_asc_node": 135.5035,
        "meta_arg_of_pericenter": 351.0037,
        "meta_mean_anomaly": 245.0703,
        "meta_ephemeris_type": 0,
        "meta_classification_type": "U",
        "meta_norad_cat_id": 42741,
        "meta_element_set_no": 999,
        "meta_rev_at_epoch": 3198,
        "meta_bstar": 0,
        "meta_mean_motion_dot": 1.5e-07,
        "meta_mean_motion_ddot": 0,
        "tle_line1": "1 42741U 17029B   25359.29311933  .00000015  00000+0  00000+0 0  9996",
        "tle_line2": "2 42741   0.0330 135.5035 0000095 351.0037 245.0703  1.00270279 31981"
      },
      "geometry": {
        "type": "Point",
        "coordinates": [
          -35.55367527014264,
          -0.02058627499656949
        ]
      }
    }
  ]
}